CCSDS_OMM_VERS = 2.0
CREATION_DATE  = 
ORIGINATOR     = 

OBJECT_NAME    = STARLINK-35398
OBJECT_ID      = 2025-232N
CENTER_NAME    = EARTH
REF_FRAME      = TEME
TIME_SYSTEM    = UTC
MEAN_ELEMENT_THEORY = SGP/SGP4

EPOCH          = 2025-11-11T05:52:26.138208
MEAN_MOTION    = 15.39636013
ECCENTRICITY   = .00012637
INCLINATION    = 53.1602
RA_OF_ASC_NODE = 296.0245
ARG_OF_PERICENTER = 85.5557
MEAN_ANOMALY   = 274.5592

EPHEMERIS_TYPE = 0
CLASSIFICATION_TYPE = U
NORAD_CAT_ID   = 66017
ELEMENT_SET_NO = 999
REV_AT_EPOCH   = 527
BSTAR          = .1492141E-2
MEAN_MOTION_DOT = .59786E-3
MEAN_MOTION_DDOT = 0

CCSDS_OMM_VERS = 2.0
CREATION_DATE  = 
ORIGINATOR     = 

OBJECT_NAME    = STARLINK-35376
OBJECT_ID      = 2025-232P
CENTER_NAME    = EARTH
REF_FRAME      = TEME
TIME_SYSTEM    = UTC
MEAN_ELEMENT_THEORY = SGP/SGP4

EPOCH          = 2025-11-10T09:02:19.148064
MEAN_MOTION    = 15.49349382
ECCENTRICITY   = .00016621
INCLINATION    = 53.1598
RA_OF_ASC_NODE = 299.8480
ARG_OF_PERICENTER = 75.8513
MEAN_ANOMALY   = 284.2681

EPHEMERIS_TYPE = 0
CLASSIFICATION_TYPE = U
NORAD_CAT_ID   = 66018
ELEMENT_SET_NO = 999
REV_AT_EPOCH   = 514
BSTAR          = .18032802E-2
MEAN_MOTION_DOT = .101297E-2
MEAN_MOTION_DDOT = 0

CCSDS_OMM_VERS = 2.0
CREATION_DATE  = 
ORIGINATOR     = 

OBJECT_NAME    = STARLINK-35382
OBJECT_ID      = 2025-232Q
CENTER_NAME    = EARTH
REF_FRAME      = TEME
TIME_SYSTEM    = UTC
MEAN_ELEMENT_THEORY = SGP/SGP4

EPOCH          = 2025-11-11T05:11:23.407296
MEAN_MOTION    = 15.49349636
ECCENTRICITY   = .00013536
INCLINATION    = 53.1597
RA_OF_ASC_NODE = 295.8445
ARG_OF_PERICENTER = 86.1283
MEAN_ANOMALY   = 273.9881

EPHEMERIS_TYPE = 0
CLASSIFICATION_TYPE = U
NORAD_CAT_ID   = 66019
ELEMENT_SET_NO = 999
REV_AT_EPOCH   = 527
BSTAR          = .16999666E-2
MEAN_MOTION_DOT = .95396E-3
MEAN_MOTION_DDOT = 0

CCSDS_OMM_VERS = 2.0
CREATION_DATE  = 
ORIGINATOR     = 

OBJECT_NAME    = STARLINK-35430
OBJECT_ID      = 2025-232R
CENTER_NAME    = EARTH
REF_FRAME      = TEME
TIME_SYSTEM    = UTC
MEAN_ELEMENT_THEORY = SGP/SGP4

EPOCH          = 2025-11-11T08:00:03.000384
MEAN_MOTION    = 15.39509260
ECCENTRICITY   = .00011235
INCLINATION    = 53.1589
RA_OF_ASC_NODE = 295.5060
ARG_OF_PERICENTER = 94.0138
MEAN_ANOMALY   = 89.1640

EPHEMERIS_TYPE = 0
CLASSIFICATION_TYPE = U
NORAD_CAT_ID   = 66020
ELEMENT_SET_NO = 999
REV_AT_EPOCH   = 449
BSTAR          = .25284814E-2
MEAN_MOTION_DOT = .101725E-2
MEAN_MOTION_DDOT = 0

CCSDS_OMM_VERS = 2.0
CREATION_DATE  = 
ORIGINATOR     = 

OBJECT_NAME    = STARLINK-35432
OBJECT_ID      = 2025-232S
CENTER_NAME    = EARTH
REF_FRAME      = TEME
TIME_SYSTEM    = UTC
MEAN_ELEMENT_THEORY = SGP/SGP4

EPOCH          = 2025-11-11T08:00:03.000384
MEAN_MOTION    = 15.39538777
ECCENTRICITY   = .00013397
INCLINATION    = 53.1593
RA_OF_ASC_NODE = 295.5577
ARG_OF_PERICENTER = 112.9221
MEAN_ANOMALY   = 44.4783

EPHEMERIS_TYPE = 0
CLASSIFICATION_TYPE = U
NORAD_CAT_ID   = 66021
ELEMENT_SET_NO = 999
REV_AT_EPOCH   = 441
BSTAR          = .2123465E-2
MEAN_MOTION_DOT = .85264E-3
MEAN_MOTION_DDOT = 0

CCSDS_OMM_VERS = 2.0
CREATION_DATE  = 
ORIGINATOR     = 

OBJECT_NAME    = STARLINK-35340
OBJECT_ID      = 2025-232T
CENTER_NAME    = EARTH
REF_FRAME      = TEME
TIME_SYSTEM    = UTC
MEAN_ELEMENT_THEORY = SGP/SGP4

EPOCH          = 2025-11-11T08:00:03.000384
MEAN_MOTION    = 15.39502685
ECCENTRICITY   = .0001418
INCLINATION    = 53.1596
RA_OF_ASC_NODE = 295.4533
ARG_OF_PERICENTER = 94.3628
MEAN_ANOMALY   = 114.5771

EPHEMERIS_TYPE = 0
CLASSIFICATION_TYPE = U
NORAD_CAT_ID   = 66022
ELEMENT_SET_NO = 999
REV_AT_EPOCH   = 449
BSTAR          = .28793431E-2
MEAN_MOTION_DOT = .116092E-2
MEAN_MOTION_DDOT = 0

CCSDS_OMM_VERS = 2.0
CREATION_DATE  = 
ORIGINATOR     = 

OBJECT_NAME    = STARLINK-35394
OBJECT_ID      = 2025-232U
CENTER_NAME    = EARTH
REF_FRAME      = TEME
TIME_SYSTEM    = UTC
MEAN_ELEMENT_THEORY = SGP/SGP4

EPOCH          = 2025-11-11T08:00:03.000384
MEAN_MOTION    = 15.39539252
ECCENTRICITY   = .00016714
INCLINATION    = 53.1599
RA_OF_ASC_NODE = 295.4016
ARG_OF_PERICENTER = 84.0810
MEAN_ANOMALY   = 150.5547

EPHEMERIS_TYPE = 0
CLASSIFICATION_TYPE = U
NORAD_CAT_ID   = 66023
ELEMENT_SET_NO = 999
REV_AT_EPOCH   = 449
BSTAR          = .27399712E-2
MEAN_MOTION_DOT = .110505E-2
MEAN_MOTION_DDOT = 0

CCSDS_OMM_VERS = 2.0
CREATION_DATE  = 
ORIGINATOR     = 

OBJECT_NAME    = STARLINK-35410
OBJECT_ID      = 2025-232V
CENTER_NAME    = EARTH
REF_FRAME      = TEME
TIME_SYSTEM    = UTC
MEAN_ELEMENT_THEORY = SGP/SGP4

EPOCH          = 2025-11-11T08:00:03.000384
MEAN_MOTION    = 15.40956980
ECCENTRICITY   = .00020544
INCLINATION    = 53.1600
RA_OF_ASC_NODE = 295.3011
ARG_OF_PERICENTER = 103.5890
MEAN_ANOMALY   = 181.7889

EPHEMERIS_TYPE = 0
CLASSIFICATION_TYPE = U
NORAD_CAT_ID   = 66024
ELEMENT_SET_NO = 999
REV_AT_EPOCH   = 449
BSTAR          = -.51714583E-1
MEAN_MOTION_DOT = -.1934351E-1
MEAN_MOTION_DDOT = 0

CCSDS_OMM_VERS = 2.0
CREATION_DATE  = 
ORIGINATOR     = 

OBJECT_NAME    = STARLINK-35280
OBJECT_ID      = 2025-232W
CENTER_NAME    = EARTH
REF_FRAME      = TEME
TIME_SYSTEM    = UTC
MEAN_ELEMENT_THEORY = SGP/SGP4

EPOCH          = 2025-11-11T08:00:03.000384
MEAN_MOTION    = 15.39548647
ECCENTRICITY   = .00018073
INCLINATION    = 53.1599
RA_OF_ASC_NODE = 295.3507
ARG_OF_PERICENTER = 88.7001
MEAN_ANOMALY   = 171.6523

EPHEMERIS_TYPE = 0
CLASSIFICATION_TYPE = U
NORAD_CAT_ID   = 66025
ELEMENT_SET_NO = 999
REV_AT_EPOCH   = 442
BSTAR          = .22510259E-2
MEAN_MOTION_DOT = .90503E-3
MEAN_MOTION_DDOT = 0

CCSDS_OMM_VERS = 2.0
CREATION_DATE  = 
ORIGINATOR     = 

OBJECT_NAME    = STARLINK-34812
OBJECT_ID      = 2025-232X
CENTER_NAME    = EARTH
REF_FRAME      = TEME
TIME_SYSTEM    = UTC
MEAN_ELEMENT_THEORY = SGP/SGP4

EPOCH          = 2025-11-11T08:00:03.000384
MEAN_MOTION    = 15.44052847
ECCENTRICITY   = .00012623
INCLINATION    = 53.1597
RA_OF_ASC_NODE = 295.2645
ARG_OF_PERICENTER = 84.8752
MEAN_ANOMALY   = 219.0440

EPHEMERIS_TYPE = 0
CLASSIFICATION_TYPE = U
NORAD_CAT_ID   = 66026
ELEMENT_SET_NO = 999
REV_AT_EPOCH   = 443
BSTAR          = -.48803702E-1
MEAN_MOTION_DOT = -.2016625E-1
MEAN_MOTION_DDOT = 0

CCSDS_OMM_VERS = 2.0
CREATION_DATE  = 
ORIGINATOR     = 

OBJECT_NAME    = STARLINK-35341
OBJECT_ID      = 2025-232Y
CENTER_NAME    = EARTH
REF_FRAME      = TEME
TIME_SYSTEM    = UTC
MEAN_ELEMENT_THEORY = SGP/SGP4

EPOCH          = 2025-11-11T08:00:03.000384
MEAN_MOTION    = 15.39529826
ECCENTRICITY   = .00013109
INCLINATION    = 53.1598
RA_OF_ASC_NODE = 295.0910
ARG_OF_PERICENTER = 102.2634
MEAN_ANOMALY   = 286.9144

EPHEMERIS_TYPE = 0
CLASSIFICATION_TYPE = U
NORAD_CAT_ID   = 66027
ELEMENT_SET_NO = 999
REV_AT_EPOCH   = 449
BSTAR          = .24803888E-2
MEAN_MOTION_DOT = .99825E-3
MEAN_MOTION_DDOT = 0

CCSDS_OMM_VERS = 2.0
CREATION_DATE  = 
ORIGINATOR     = 

OBJECT_NAME    = STARLINK-35339
OBJECT_ID      = 2025-232Z
CENTER_NAME    = EARTH
REF_FRAME      = TEME
TIME_SYSTEM    = UTC
MEAN_ELEMENT_THEORY = SGP/SGP4

EPOCH          = 2025-11-11T08:00:03.000384
MEAN_MOTION    = 15.39646473
ECCENTRICITY   = .00015287
INCLINATION    = 53.1591
RA_OF_ASC_NODE = 295.0394
ARG_OF_PERICENTER = 92.2616
MEAN_ANOMALY   = 322.5906

EPHEMERIS_TYPE = 0
CLASSIFICATION_TYPE = U
NORAD_CAT_ID   = 66028
ELEMENT_SET_NO = 999
REV_AT_EPOCH   = 442
BSTAR          = -.20090498E-2
MEAN_MOTION_DOT = -.79993E-3
MEAN_MOTION_DDOT = 0

