STARLINK-35398          
1 66017U 25232N   25315.24474697  .00059786  00000+0  14921-2 0  9996
2 66017  53.1602 296.0245 0001263  85.5557 274.5592 15.39636013  5279
STARLINK-35376          
1 66018U 25232P   25314.37661051  .00101297  00000+0  18033-2 0  9995
2 66018  53.1598 299.8480 0001662  75.8513 284.2681 15.49349382  5147
STARLINK-35382          
1 66019U 25232Q   25315.21624314  .00095396  00000+0  17000-2 0  9996
2 66019  53.1597 295.8445 0001353  86.1283 273.9881 15.49349636  5273
STARLINK-35430          
1 66020U 25232R   25315.33336806  .00101725  00000+0  25285-2 0  9995
2 66020  53.1589 295.5060 0001123  94.0138  89.1640 15.39509260  4491
STARLINK-35432          
1 66021U 25232S   25315.33336806  .00085264  00000+0  21235-2 0  9996
2 66021  53.1593 295.5577 0001339 112.9221  44.4783 15.39538777  4411
STARLINK-35340          
1 66022U 25232T   25315.33336806  .00116092  00000+0  28793-2 0  9997
2 66022  53.1596 295.4533 0001418  94.3628 114.5771 15.39502685  4491
STARLINK-35394          
1 66023U 25232U   25315.33336806  .00110505  00000+0  27400-2 0  9995
2 66023  53.1599 295.4016 0001671  84.0810 150.5547 15.39539252  4492
STARLINK-35410          
1 66024U 25232V   25315.33336806 -.01934351  00000+0 -51715-1 0  9997
2 66024  53.1600 295.3011 0002054 103.5890 181.7889 15.40956980  4499
STARLINK-35280          
1 66025U 25232W   25315.33336806  .00090503  00000+0  22510-2 0  9999
2 66025  53.1599 295.3507 0001807  88.7001 171.6523 15.39548647  4421
STARLINK-34812          
1 66026U 25232X   25315.33336806 -.02016625  00000+0 -48804-1 0  9990
2 66026  53.1597 295.2645 0001262  84.8752 219.0440 15.44052847  4431
STARLINK-35341          
1 66027U 25232Y   25315.33336806  .00099825  00000+0  24804-2 0  9995
2 66027  53.1598 295.0910 0001310 102.2634 286.9144 15.39529826  4494
STARLINK-35339          
1 66028U 25232Z   25315.33336806 -.00079993  00000+0 -20090-2 0  9995
2 66028  53.1591 295.0394 0001528  92.2616 322.5906 15.39646473  4427
